{
  "type": "FeatureCollection",
  "features": [
    {
      "type": "Feature",
      "properties": {
        "norad_id": 66647,
        "name": "COSMOS 2597 (RODNIK-S 22)",
        "group": "last-30-days",
        "lat": 58.039891776108526,
        "lon": -70.35779421604096,
        "alt_km": 1498.5137057205993,
        "timestamp": "2025-12-27T05:29:37.915553+00:00",
        "meta_object_name": "COSMOS 2597 (RODNIK-S 22)",
        "meta_object_id": "2025-273A",
        "meta_epoch": "2025-12-26T19:30:39.240288",
        "meta_mean_motion": 12.41952314,
        "meta_eccentricity": 0.00075998,
        "meta_inclination": 82.4993,
        "meta_ra_of_asc_node": 277.7108,
        "meta_arg_of_pericenter": 252.7737,
        "meta_mean_anomaly": 107.251,
        "meta_ephemeris_type": 0,
        "meta_classification_type": "U",
        "meta_norad_cat_id": 66647,
        "meta_element_set_no": 999,
        "meta_rev_at_epoch": 388,
        "meta_bstar": 9.9658941e-05,
        "meta_mean_motion_dot": 2.3e-07,
        "meta_mean_motion_ddot": 0,
        "tle_line1": "1 66647U 25273A   25360.81295417  .00000023  00000+0  99659-4 0  9997",
        "tle_line2": "2 66647  82.4993 277.7108 0007599 252.7737 107.2510 12.41952314  3888"
      },
      "geometry": {
        "type": "Point",
        "coordinates": [
          -70.35779421604096,
          58.039891776108526
        ]
      }
    },
    {
      "type": "Feature",
      "properties": {
        "norad_id": 66648,
        "name": "COSMOS 2598 (RODNIK-S 23)",
        "group": "last-30-days",
        "lat": 18.451182432723897,
        "lon": 94.9183290927837,
        "alt_km": 1488.080781129217,
        "timestamp": "2025-12-27T05:29:37.915563+00:00",
        "meta_object_name": "COSMOS 2598 (RODNIK-S 23)",
        "meta_object_id": "2025-273B",
        "meta_epoch": "2025-12-26T22:50:04.025472",
        "meta_mean_motion": 12.43233661,
        "meta_eccentricity": 0.00082548,
        "meta_inclination": 82.5032,
        "meta_ra_of_asc_node": 277.6087,
        "meta_arg_of_pericenter": 203.0128,
        "meta_mean_anomaly": 157.0583,
        "meta_ephemeris_type": 0,
        "meta_classification_type": "U",
        "meta_norad_cat_id": 66648,
        "meta_element_set_no": 999,
        "meta_rev_at_epoch": 390,
        "meta_bstar": 7.0871621e-05,
        "meta_mean_motion_dot": 2e-07,
        "meta_mean_motion_ddot": 0,
        "tle_line1": "1 66648U 25273B   25360.95143548  .00000020  00000+0  70872-4 0  9993",
        "tle_line2": "2 66648  82.5032 277.6087 0008254 203.0128 157.0583 12.43233661  3906"
      },
      "geometry": {
        "type": "Point",
        "coordinates": [
          94.9183290927837,
          18.451182432723897
        ]
      }
    },
    {
      "type": "Feature",
      "properties": {
        "norad_id": 66649,
        "name": "COSMOS 2599 (RODNIK-S 24)",
        "group": "last-30-days",
        "lat": -1.5142110689277555,
        "lon": -82.70883995620268,
        "alt_km": 1507.0200538842428,
        "timestamp": "2025-12-27T05:29:37.915574+00:00",
        "meta_object_name": "COSMOS 2599 (RODNIK-S 24)",
        "meta_object_id": "2025-273C",
        "meta_epoch": "2025-12-26T21:45:48.822912",
        "meta_mean_motion": 12.41152445,
        "meta_eccentricity": 0.00063518,
        "meta_inclination": 82.505,
        "meta_ra_of_asc_node": 277.69,
        "meta_arg_of_pericenter": 240.5248,
        "meta_mean_anomaly": 119.5197,
        "meta_ephemeris_type": 0,
        "meta_classification_type": "U",
        "meta_norad_cat_id": 66649,
        "meta_element_set_no": 999,
        "meta_rev_at_epoch": 389,
        "meta_bstar": 0.00028094788,
        "meta_mean_motion_dot": 4.8e-07,
        "meta_mean_motion_ddot": 0,
        "tle_line1": "1 66649U 25273C   25360.90681508  .00000048  00000+0  28095-3 0  9991",
        "tle_line2": "2 66649  82.5050 277.6900 0006351 240.5248 119.5197 12.41152445  3896"
      },
      "geometry": {
        "type": "Point",
        "coordinates": [
          -82.70883995620268,
          -1.5142110689277555
        ]
      }
    },
    {
      "type": "Feature",
      "properties": {
        "norad_id": 66650,
        "name": "BEE-1000",
        "group": "last-30-days",
        "lat": -66.99061791277349,
        "lon": -53.167564268844636,
        "alt_km": 600.2887180777907,
        "timestamp": "2025-12-27T05:29:37.915590+00:00",
        "meta_object_name": "BEE-1000",
        "meta_object_id": "2025-274A",
        "meta_epoch": "2025-12-26T16:55:14.687040",
        "meta_mean_motion": 14.91708342,
        "meta_eccentricity": 0.00112247,
        "meta_inclination": 97.7406,
        "meta_ra_of_asc_node": 287.6373,
        "meta_arg_of_pericenter": 200.3301,
        "meta_mean_anomaly": 159.7472,
        "meta_ephemeris_type": 0,
        "meta_classification_type": "U",
        "meta_norad_cat_id": 66650,
        "meta_element_set_no": 999,
        "meta_rev_at_epoch": 448,
        "meta_bstar": 0.00017602863,
        "meta_mean_motion_dot": 1.717e-05,
        "meta_mean_motion_ddot": 0,
        "tle_line1": "1 66650U 25274A   25360.70503110  .00001717  00000+0  17603-3 0  9991",
        "tle_line2": "2 66650  97.7406 287.6373 0011224 200.3301 159.7472 14.91708342  4483"
      },
      "geometry": {
        "type": "Point",
        "coordinates": [
          -53.167564268844636,
          -66.99061791277349
        ]
      }
    },
    {
      "type": "Feature",
      "properties": {
        "norad_id": 66651,
        "name": "2025-274B",
        "group": "last-30-days",
        "lat": -54.06854151864331,
        "lon": -61.02733416742559,
        "alt_km": 601.5432336996628,
        "timestamp": "2025-12-27T05:29:37.915600+00:00",
        "meta_object_name": "2025-274B",
        "meta_object_id": "2025-274B",
        "meta_epoch": "2025-12-26T18:28:18.242112",
        "meta_mean_motion": 14.91901292,
        "meta_eccentricity": 0.00114256,
        "meta_inclination": 97.7399,
        "meta_ra_of_asc_node": 287.7049,
        "meta_arg_of_pericenter": 198.3459,
        "meta_mean_anomaly": 161.7349,
        "meta_ephemeris_type": 0,
        "meta_classification_type": "U",
        "meta_norad_cat_id": 66651,
        "meta_element_set_no": 999,
        "meta_rev_at_epoch": 449,
        "meta_bstar": 0.00039040807,
        "meta_mean_motion_dot": 3.897e-05,
        "meta_mean_motion_ddot": 0,
        "tle_line1": "1 66651U 25274B   25360.76965558  .00003897  00000+0  39041-3 0  9997",
        "tle_line2": "2 66651  97.7399 287.7049 0011425 198.3459 161.7349 14.91901292  4495"
      },
      "geometry": {
        "type": "Point",
        "coordinates": [
          -61.02733416742559,
          -54.06854151864331
        ]
      }
    },
    {
      "type": "Feature",
      "properties": {
        "norad_id": 66652,
        "name": "2025-274C",
        "group": "last-30-days",
        "lat": -41.827195764319804,
        "lon": -64.84500967811181,
        "alt_km": 601.5014355605217,
        "timestamp": "2025-12-27T05:29:37.915610+00:00",
        "meta_object_name": "2025-274C",
        "meta_object_id": "2025-274C",
        "meta_epoch": "2025-12-26T18:24:58.554432",
        "meta_mean_motion": 14.91984941,
        "meta_eccentricity": 0.00109401,
        "meta_inclination": 97.7406,
        "meta_ra_of_asc_node": 287.7096,
        "meta_arg_of_pericenter": 205.0107,
        "meta_mean_anomaly": 155.0583,
        "meta_ephemeris_type": 0,
        "meta_classification_type": "U",
        "meta_norad_cat_id": 66652,
        "meta_element_set_no": 999,
        "meta_rev_at_epoch": 449,
        "meta_bstar": 0.00032448011,
        "meta_mean_motion_dot": 3.235e-05,
        "meta_mean_motion_ddot": 0,
        "tle_line1": "1 66652U 25274C   25360.76734438  .00003235  00000+0  32448-3 0  9999",
        "tle_line2": "2 66652  97.7406 287.7096 0010940 205.0107 155.0583 14.91984941  4492"
      },
      "geometry": {
        "type": "Point",
        "coordinates": [
          -64.84500967811181,
          -41.827195764319804
        ]
      }
    },
    {
      "type": "Feature",
      "properties": {
        "norad_id": 66653,
        "name": "2025-274D",
        "group": "last-30-days",
        "lat": -41.54182010406689,
        "lon": -64.91596681915169,
        "alt_km": 602.271692928537,
        "timestamp": "2025-12-27T05:29:37.915620+00:00",
        "meta_object_name": "2025-274D",
        "meta_object_id": "2025-274D",
        "meta_epoch": "2025-12-26T18:24:53.684928",
        "meta_mean_motion": 14.91972672,
        "meta_eccentricity": 0.00119326,
        "meta_inclination": 97.7403,
        "meta_ra_of_asc_node": 287.709,
        "meta_arg_of_pericenter": 201.7877,
        "meta_mean_anomaly": 158.2836,
        "meta_ephemeris_type": 0,
        "meta_classification_type": "U",
        "meta_norad_cat_id": 66653,
        "meta_element_set_no": 999,
        "meta_rev_at_epoch": 449,
        "meta_bstar": 0.00025148356,
        "meta_mean_motion_dot": 2.494e-05,
        "meta_mean_motion_ddot": 0,
        "tle_line1": "1 66653U 25274D   25360.76728802  .00002494  00000+0  25148-3 0  9993",
        "tle_line2": "2 66653  97.7403 287.7090 0011932 201.7877 158.2836 14.91972672  4497"
      },
      "geometry": {
        "type": "Point",
        "coordinates": [
          -64.91596681915169,
          -41.54182010406689
        ]
      }
    }
  ]
}